{"fetched_at":"2026-03-29T16:36:15Z","count":15609,"tles":[{"name":"STARLINK-11550 [DTC]","line1":"1 63052U 25035A   26087.89425791  .00172534  00000+0  13192-2 0  9998","line2":"2 63052  42.9997 259.3723 0001006 252.2303 107.8455 15.70861465 64242","category":"Starlink"}]}