{
  "norad_id": 63052,
  "name": "STARLINK-11550 [DTC]",
  "history": [
    {
      "epoch": "2026-03-28T21:27:43.883424Z",
      "apogee_km": 357.1112090934839,
      "perigee_km": 355.7562134663749,
      "latitude_deg": 9.92350659258641e-06,
      "longitude_deg": 111.13130624120409,
      "height_km": 356.4124767303743,
      "semi_major_axis_km": 6734.570711279929,
      "eccentricity": 0.0001006,
      "inclination_deg": 42.9997,
      "raan_deg": 259.3723,
      "arg_perigee_deg": 252.2303,
      "mean_anomaly_deg": 107.8455,
      "mean_motion_rev_day": 15.70861465
    }
  ]
}